NORAD_CAT_ID,OBJECT_NAME,OBJECT_TYPE,EPOCH,MEAN_MOTION,ECCENTRICITY,INCLINATION,RA_OF_ASC_NODE,ARG_OF_PERICENTER,MEAN_ANOMALY,BSTAR,MEAN_MOTION_DOT,MEAN_MOTION_DDOT,TLE_LINE0,TLE_LINE1,TLE_LINE2,SEMIMAJOR_AXIS,PERIOD,APOGEE,PERIGEE,DECAYED
49454.0,STARLINK-3160,PAYLOAD,2023-10-23 22:20:48,15.08835173,0.0001871,53.2167,154.6386,116.716,243.4024,-0.00014435,-2.584e-05,0.0,0 STARLINK-3160,1 49454U 21104AY  23296.93111750 -.00002584  00000-0 -14435-3 0  9994,2 49454  53.2167 154.6386 0001871 116.7160 243.4024 15.08835173107776,6917.895,95.438,541.054,538.466,0.0
49454.0,STARLINK-3160,PAYLOAD,2023-10-24 14:14:39,15.08840075,0.000159,53.2162,151.6656,88.8957,271.2217,0.00033991,5.126e-05,0.0,0 STARLINK-3160,1 49454U 21104AY  23297.59351717  .00005126  00000-0  33991-3 0  9997,2 49454  53.2162 151.6656 0001590  88.8957 271.2217 15.08840075107870,6917.88,95.438,540.845,538.645,0.0
49454.0,STARLINK-3160,PAYLOAD,2023-10-24 23:46:58,15.08849169,0.0001816,53.2164,149.8804,96.1562,263.9637,0.00028098,4.188e-05,0.0,0 STARLINK-3160,1 49454U 21104AY  23297.99095224  .00004188  00000-0  28098-3 0  9998,2 49454  53.2164 149.8804 0001816  96.1562 263.9637 15.08849169109016,6917.852,95.437,540.974,538.461,0.0
49454.0,STARLINK-3160,PAYLOAD,2023-10-25 23:37:46,15.08816552,0.0001401,53.2162,145.4197,92.9812,267.134,-0.00029777,-5.021e-05,0.0,0 STARLINK-3160,1 49454U 21104AY  23298.98456953 -.00005021  00000-0 -29777-3 0  9992,2 49454  53.2162 145.4197 0001401  92.9812 267.1340 15.08816552109166,6917.952,95.439,540.786,538.848,0.0
49454.0,STARLINK-3160,PAYLOAD,2023-10-26 18:42:24,15.08829921,0.000139,53.2137,141.8515,88.3598,271.7553,-5.2187e-05,-1.118e-05,0.0,0 STARLINK-3160,1 49454U 21104AY  23299.77944840 -.00001118  00000-0 -52187-4 0  9992,2 49454  53.2137 141.8515 0001390  88.3598 271.7553 15.08829921109283,6917.911,95.438,540.738,538.815,0.0
49454.0,STARLINK-3160,PAYLOAD,2023-10-26 20:17:48,15.08802635,0.0001356,53.2152,141.5542,138.5556,221.5539,-0.00051482,-8.463e-05,0.0,0 STARLINK-3160,1 49454U 21104AY  23299.84569809 -.00008463  00000-0 -51482-3 0  9994,2 49454  53.2152 141.5542 0001356 138.5556 221.5539 15.08802635108213,6917.995,95.44,540.798,538.922,0.0
49454.0,STARLINK-3160,PAYLOAD,2023-10-27 13:47:01,15.08839959,8.08e-05,53.215,138.2804,81.217,278.8914,0.00022287,3.261e-05,0.0,0 STARLINK-3160,1 49454U 21104AY  23300.57432433  .00003261  00000-0  22287-3 0  9999,2 49454  53.2150 138.2804 0000808  81.2170 278.8914 15.08839959108325,6917.881,95.438,540.304,539.187,0.0
49454.0,STARLINK-3160,PAYLOAD,2023-10-27 20:08:33,15.08854163,0.0001447,53.215,137.0918,85.4433,274.6725,0.00048151,7.387e-05,0.0,0 STARLINK-3160,1 49454U 21104AY  23300.83927792  .00007387  00000-0  48151-3 0  9996,2 49454  53.2150 137.0918 0001447  85.4433 274.6725 15.08854163109448,6917.837,95.437,540.703,538.701,0.0
49454.0,STARLINK-3160,PAYLOAD,2023-10-28 05:40:53,15.0883874,0.0001714,53.2152,135.3089,88.7369,271.3819,0.0003117,4.676e-05,0.0,0 STARLINK-3160,1 49454U 21104AY  23301.23672532  .00004676  00000-0  31170-3 0  9991,2 49454  53.2152 135.3089 0001714  88.7369 271.3819 15.08838740109509,6917.884,95.438,540.935,538.564,0.0
49454.0,STARLINK-3160,PAYLOAD,2023-10-28 13:37:47,15.08854349,0.0001134,53.2147,133.8213,110.3013,249.8101,-0.00037691,-6.284e-05,0.0,0 STARLINK-3160,1 49454U 21104AY  23301.56791587 -.00006284  00000-0 -37691-3 0  9992,2 49454  53.2147 133.8213 0001134 110.3013 249.8101 15.08854349108471,6917.837,95.437,540.486,538.917,0.0
49454.0,STARLINK-3160,PAYLOAD,2023-10-28 19:59:20,15.08854037,0.0001364,53.2149,132.6334,108.7497,251.3643,-7.4355e-05,-1.472e-05,0.0,0 STARLINK-3160,1 49454U 21104AY  23301.83287389 -.00001472  00000-0 -74355-4 0  9995,2 49454  53.2149 132.6334 0001364 108.7497 251.3643 15.08854037109593,6917.837,95.437,540.646,538.759,0.0
49454.0,STARLINK-3160,PAYLOAD,2023-10-29 11:53:11,15.08852346,0.0001535,53.2158,129.6611,96.1639,263.9528,1.8714e-06,-2.58e-06,0.0,0 STARLINK-3160,1 49454U 21104AY  23302.49527215 -.00000258  00000-0  18714-5 0  9991,2 49454  53.2158 129.6611 0001535  96.1639 263.9528 15.08852346108619,6917.843,95.437,540.77,538.646,0.0
49454.0,STARLINK-3160,PAYLOAD,2023-10-29 19:50:07,15.08852986,0.0001506,53.2158,128.174,94.7923,265.3241,3.3151e-05,2.4e-06,0.0,0 STARLINK-3160,1 49454U 21104AY  23302.82646991  .00000240  00000-0  33151-4 0  9992,2 49454  53.2158 128.1740 0001506  94.7923 265.3241 15.08852986108667,6917.841,95.437,540.748,538.664,0.0
49454.0,STARLINK-3160,PAYLOAD,2023-10-30 11:43:58,15.08839752,0.0001428,53.2156,125.2008,95.9071,264.2084,5.5522e-05,5.96e-06,0.0,0 STARLINK-3160,1 49454U 21104AY  23303.48887510  .00000596  00000-0  55522-4 0  9999,2 49454  53.2156 125.2008 0001428  95.9071 264.2084 15.08839752109840,6917.881,95.438,540.734,538.758,0.0
49454.0,STARLINK-3160,PAYLOAD,2023-10-30 19:40:54,15.08838695,0.0001358,53.2148,123.7131,93.5376,266.5771,6.8153e-06,-1.79e-06,0.0,0 STARLINK-3160,1 49454U 21104AY  23303.82007583 -.00000179  00000-0  68153-5 0  9994,2 49454  53.2148 123.7131 0001358  93.5376 266.5771 15.08838695108814,6917.884,95.438,540.689,538.81,0.0
49454.0,STARLINK-3160,PAYLOAD,2023-10-31 11:34:46,15.08838829,0.0001475,53.2161,120.7394,91.8808,268.2353,6.1089e-05,6.84e-06,0.0,0 STARLINK-3160,1 49454U 21104AY  23304.48247952  .00000684  00000-0  61089-4 0  9993,2 49454  53.2161 120.7394 0001475  91.8808 268.2353 15.08838829108913,6917.884,95.438,540.769,538.729,0.0
49454.0,STARLINK-3160,PAYLOAD,2023-10-31 19:31:41,15.08841154,0.0001356,53.2161,119.2527,90.2513,269.8634,3.5986e-05,2.85e-06,0.0,0 STARLINK-3160,1 49454U 21104AY  23304.81367820  .00000285  00000-0  35986-4 0  9991,2 49454  53.2161 119.2527 0001356  90.2513 269.8634 15.08841154110049,6917.877,95.437,540.68,538.804,0.0
49454.0,STARLINK-3160,PAYLOAD,2023-11-01 05:04:00,15.08840644,0.0001357,53.2163,117.4683,90.0133,270.1015,5.7485e-05,6.27e-06,0.0,0 STARLINK-3160,1 49454U 21104AY  23305.21111803  .00000627  00000-0  57485-4 0  9992,2 49454  53.2163 117.4683 0001357  90.0133 270.1015 15.08840644109028,6917.878,95.438,540.682,538.805,0.0
49454.0,STARLINK-3160,PAYLOAD,2023-11-01 20:57:51,15.08842769,0.0001366,53.2161,114.494,91.3123,268.8026,0.00011166,1.49e-05,0.0,0 STARLINK-3160,1 49454U 21104AY  23305.87351590  .00001490  00000-0  11166-3 0  9997,2 49454  53.2161 114.4940 0001366  91.3123 268.8026 15.08842769109129,6917.872,95.437,540.682,538.792,0.0
49454.0,STARLINK-3160,PAYLOAD,2023-11-02 14:27:06,15.08840726,0.000136,53.2159,111.2224,91.7819,268.3329,9.3297e-05,1.197e-05,0.0,0 STARLINK-3160,1 49454U 21104AY  23306.60215803  .00001197  00000-0  93297-4 0  9995,2 49454  53.2159 111.2224 0001360  91.7819 268.3329 15.08840726109230,6917.878,95.438,540.684,538.802,0.0
49454.0,STARLINK-3160,PAYLOAD,2023-11-02 17:37:52,15.08843497,0.0001351,53.2162,110.6275,91.3209,268.7938,8.1137e-05,1.004e-05,0.0,0 STARLINK-3160,1 49454U 21104AY  23306.73463657  .00001004  00000-0  81137-4 0  9998,2 49454  53.2162 110.6275 0001351  91.3209 268.7938 15.08843497109252,6917.87,95.437,540.669,538.8,0.0
49454.0,STARLINK-3160,PAYLOAD,2023-11-03 01:34:48,15.08835505,0.0001415,53.2164,109.1398,99.9997,260.1155,1.5499e-05,-4.1e-07,0.0,0 STARLINK-3160,1 49454U 21104AY  23307.06584162 -.00000041  00000-0  15499-4 0  9999,2 49454  53.2164 109.1398 0001415  99.9997 260.1155 15.08835505110386,6917.894,95.438,540.738,538.78,0.0
49454.0,STARLINK-3160,PAYLOAD,2023-11-03 14:17:53,15.0884531,0.0001433,53.216,106.7612,96.3257,263.7899,0.00011434,1.532e-05,0.0,0 STARLINK-3160,1 49454U 21104AY  23307.59575460  .00001532  00000-0  11434-3 0  9997,2 49454  53.2160 106.7612 0001433  96.3257 263.7899 15.08845310109381,6917.864,95.437,540.72,538.738,0.0
49454.0,STARLINK-3160,PAYLOAD,2023-11-03 20:39:25,15.08850865,0.000137,53.2161,105.5725,88.3245,271.7904,0.00016385,2.321e-05,0.0,0 STARLINK-3160,1 49454U 21104AY  23307.86071229  .00002321  00000-0  16385-3 0  9998,2 49454  53.2161 105.5725 0001370  88.3245 271.7904 15.08850865110505,6917.847,95.437,540.66,538.764,0.0
49454.0,STARLINK-3160,PAYLOAD,2023-11-03 22:14:48,15.08854824,0.0001372,53.2161,105.2752,87.8353,272.2796,0.00022168,3.243e-05,0.0,0 STARLINK-3160,1 49454U 21104AY  23307.92695010  .00003243  00000-0  22168-3 0  9995,2 49454  53.2161 105.2752 0001372  87.8353 272.2796 15.08854824109432,6917.835,95.437,540.649,538.751,0.0
49454.0,STARLINK-3160,PAYLOAD,2023-11-04 14:08:40,15.08835824,0.0001484,53.2162,102.3015,90.2266,269.8896,3.3811e-06,-2.34e-06,0.0,0 STARLINK-3160,1 49454U 21104AY  23308.58936117 -.00000234  00000-0  33811-5 0  9991,2 49454  53.2162 102.3015 0001484  90.2266 269.8896 15.08835824109531,6917.893,95.438,540.785,538.732,0.0
49454.0,STARLINK-3160,PAYLOAD,2023-11-04 17:19:26,15.08842796,0.0001299,53.2164,101.7069,87.2881,272.826,8.538e-05,1.071e-05,0.0,0 STARLINK-3160,1 49454U 21104AY  23308.72183769  .00001071  00000-0  85380-4 0  9990,2 49454  53.2164 101.7069 0001299  87.2881 272.8260 15.08842796110636,6917.872,95.437,540.635,538.838,0.0
49454.0,STARLINK-3160,PAYLOAD,2023-11-05 13:59:27,15.08848732,0.000129,53.2164,97.8416,87.4611,272.6529,0.00029282,4.376e-05,0.0,0 STARLINK-3160,1 49454U 21104AY  23309.58295591  .00004376  00000-0  29282-3 0  9991,2 49454  53.2164  97.8416 0001290  87.4611 272.6529 15.08848732109686,6917.854,95.437,540.611,538.826,0.0
49454.0,STARLINK-3160,PAYLOAD,2023-11-05 17:10:13,15.0885885,0.0001299,53.2165,97.2476,89.6726,270.4415,0.00069305,0.00010765,0.0,0 STARLINK-3160,1 49454U 21104AY  23309.71543323  .00010765  00000-0  69305-3 0  9994,2 49454  53.2165  97.2476 0001299  89.6726 270.4415 15.08858850109702,6917.823,95.436,540.586,538.789,0.0
49454.0,STARLINK-3160,PAYLOAD,2023-11-06 02:42:31,15.08865788,0.0001184,53.2164,95.4625,82.8508,277.2619,0.00098436,0.00015424,0.0,0 STARLINK-3160,1 49454U 21104AY  23310.11286951  .00015424  00000-0  98436-3 0  9995,2 49454  53.2164  95.4625 0001184  82.8508 277.2619 15.08865788110849,6917.802,95.436,540.486,538.847,0.0
